PHISAT 2                
1 60470U 24149C   26068.78834181  .00008925  00000+0  31421-3 0  9996
2 60470  97.3806 148.6498 0001175 168.6230 191.5037 15.29548631 86792
STARLINK-34009          
1 63849U 25093P   26068.19395938  .00039188  00000+0  14257-2 0  9997
2 63849  43.0018  77.4691 0001373 265.9640  94.1055 15.27586801 47938
